{"type":"FeatureCollection","features":[{"type":"Feature","properties":{"shapeName":"Kocaeli","shapeISO":"TR-41","shapeID":"25984515B86381770870747","shapeGroup":"TUR","shapeType":"ADM1"},"geometry":{"type":"MultiPolygon","coordinates":[[[[29.9669815,40.551366],[29.9820595,40.5572329],[29.9989429,40.5662219],[30.0309624,40.574763],[30.0381932,40.5781134],[30.0466444,40.5899424],[30.0534242,40.5936054],[30.0615711,40.592494],[30.093987,40.6004078],[30.1033973,40.6012297],[30.1152167,40.6078617],[30.1172375,40.6154347],[30.122602,40.6152881],[30.1261639,40.6220475],[30.12715574,40.622803523],[30.131185,40.6258748],[30.1358308,40.6295364],[30.1369348,40.6359961],[30.1462483,40.6455615],[30.1460981,40.6509503],[30.1531577,40.6582107],[30.1600241,40.6758212],[30.158329,40.6840552],[30.161097,40.6979986],[30.1555824,40.7049122],[30.1560784,40.7115106],[30.1755927,40.7135114],[30.2517112,40.726506],[30.2542663,40.7388194],[30.2521634,40.7393153],[30.2518523,40.7420873],[30.2475929,40.7468262],[30.2436053,40.7490481],[30.2412138,40.7557378],[30.2446386,40.7600693],[30.2415204,40.7621217],[30.2454735,40.7677096],[30.2436149,40.7732587],[30.2378726,40.7790303],[30.2369731,40.7828284],[30.2270825,40.7838539],[30.2190898,40.7906055],[30.2169312,40.7946681],[30.2181918,40.798053],[30.2230403,40.8028477],[30.2261567,40.8038128],[30.2171146,40.8126159],[30.2156377,40.817178],[30.2175629,40.8185836],[30.2153171,40.8206996],[30.2175791,40.8217316],[30.2171714,40.8276876],[30.2207799,40.8279638],[30.2249114,40.8371414],[30.2266996,40.8371672],[30.2272548,40.8339001],[30.2298689,40.8384082],[30.2290749,40.8477989],[30.2350658,40.8477105],[30.2386987,40.8444551],[30.2404161,40.8458416],[30.2481462,40.8444882],[30.2531285,40.8474933],[30.256884,40.8456129],[30.2565819,40.8536221],[30.2526773,40.8575818],[30.255979,40.8598725],[30.2587295,40.8586895],[30.2577282,40.8601925],[30.2622485,40.861286],[30.2674734,40.865984],[30.2577102,40.8798162],[30.2596521,40.8827527],[30.2569381,40.8883733],[30.2465951,40.8934347],[30.2361035,40.8953435],[30.2339102,40.8934647],[30.2346003,40.9013336],[30.240419,40.9056005],[30.2540624,40.9080153],[30.2628761,40.9058503],[30.2708959,40.8973599],[30.2823831,40.8935888],[30.284539,40.9027928],[30.2864248,40.9053667],[30.2917168,40.9057071],[30.2916857,40.9082067],[30.2891387,40.9119197],[30.2824411,40.9121631],[30.2806316,40.9177009],[30.2747101,40.9182555],[30.2766895,40.9189243],[30.275626,40.9206447],[30.2788385,40.9249547],[30.2898987,40.929334],[30.2850683,40.9342695],[30.277205,40.9381782],[30.2793664,40.944694],[30.2851892,40.9488171],[30.284637,40.9498461],[30.2831141,40.9490903],[30.2825689,40.9521834],[30.2904634,40.9555597],[30.2880124,40.9588762],[30.2841235,40.9590862],[30.2852848,40.9577119],[30.2838457,40.9570127],[30.2774727,40.9562632],[30.2768183,40.9680635],[30.2719828,40.9716584],[30.2713412,40.9741147],[30.2690506,40.9698416],[30.2670336,40.9719762],[30.2670955,40.9756594],[30.2641875,40.975468],[30.2605641,40.9783429],[30.2606285,40.9870051],[30.2510442,40.9828782],[30.2482214,40.977863],[30.2453838,40.9767201],[30.2373469,40.9800115],[30.2378726,40.9902324],[30.2355726,40.9928976],[30.2385398,40.9962624],[30.2341236,41.0035496],[30.235008,41.0052369],[30.2308559,41.0082569],[30.2311817,41.010378],[30.2269149,41.0152916],[30.2282335,41.0196134],[30.2308345,41.0183439],[30.2352076,41.0195983],[30.2368641,41.0231602],[30.2435589,41.0286884],[30.2459085,41.0286884],[30.246048,41.0270372],[30.2497288,41.0311355],[30.2508935,41.0374251],[30.2585513,41.0387825],[30.2577915,41.0399548],[30.2620541,41.0380909],[30.2573315,41.0466946],[30.2644868,41.0481391],[30.2661905,41.0509854],[30.2539873,41.0556346],[30.2554289,41.0575496],[30.2542448,41.0626],[30.2522385,41.0681087],[30.2472711,41.0734794],[30.2440309,41.0851657],[30.2577873,41.0852566],[30.2577843,41.0869657],[30.2620164,41.0864199],[30.2625062,41.0897973],[30.2663147,41.0904946],[30.2816357,41.0890074],[30.2870965,41.0946992],[30.2910125,41.0961061],[30.2955557,41.1027919],[30.3057861,41.1092596],[30.3066347,41.1125181],[30.3087902,41.1126628],[30.3147769,41.1184098],[30.3233694,41.1228533],[30.3271867,41.1386428],[30.3259469,41.1427659],[30.3286171,41.1450123],[30.3321701,41.1556247],[30.3396785,41.1621139],[30.3487509,41.1654214],[30.3559005,41.1649651],[30.365706,41.1684112],[30.3657536,41.1711221],[30.3622198,41.1738249],[30.3671418,41.1791986],[30.3523045,41.1853448],[30.351945,41.187988],[30.3494597,41.1880918],[30.350632,41.191039],[30.349085,41.1928038],[30.344274,41.192817],[30.3423028,41.1913742],[30.3328608,41.194911],[30.330201,41.1972218],[30.330355,41.200838],[30.324233,41.200952],[30.321282,41.198317],[30.317902,41.197852],[30.310312,41.200627],[30.2946282,41.2005414],[30.2797192,41.2041679],[30.2707639,41.209732],[30.2631522,41.207562],[30.262915,41.20028],[30.2559402,41.1910974],[30.243582,41.1868008],[30.235365,41.188712],[30.224573,41.186784],[30.224638,41.185246],[30.2307162,41.1838585],[30.2308839,41.179767],[30.2333638,41.1780466],[30.2292865,41.1755556],[30.2258976,41.176459],[30.2273361,41.1787839],[30.2240707,41.1782326],[30.219967,41.1753696],[30.2222704,41.1734432],[30.2203729,41.1726726],[30.2235942,41.1700485],[30.2237001,41.1711646],[30.2257387,41.17056],[30.2258358,41.1686866],[30.2223674,41.1698625],[30.2273096,41.1654711],[30.2217176,41.1594032],[30.2174726,41.1586255],[30.2163052,41.1603937],[30.2117782,41.1610576],[30.2119459,41.1633035],[30.2098012,41.1625859],[30.2059708,41.1640211],[30.2074447,41.162154],[30.2063944,41.1608849],[30.197407,41.162511],[30.1944448,41.1607123],[30.1924603,41.161464],[30.1909501,41.1586309],[30.195749,41.1578275],[30.1954495,41.1544164],[30.197072,41.152941],[30.1938215,41.1508841],[30.1910056,41.146004],[30.1873286,41.1464801],[30.1875223,41.1492913],[30.182381,41.148539],[30.180148,41.153105],[30.178102,41.153312],[30.179793,41.149503],[30.178716,41.14691],[30.1692832,41.1432685],[30.168617,41.144865],[30.166937,41.144438],[30.1611599,41.1408712],[30.159241,41.14181],[30.1550959,41.1387847],[30.1452237,41.1397467],[30.1403135,41.1425241],[30.118766,41.143371],[30.110354,41.14162],[30.1062874,41.1392454],[30.1055996,41.1369341],[30.102361,41.138082],[30.1022232,41.1355022],[30.098856,41.13671],[30.099207,41.140313],[30.093894,41.137612],[30.091791,41.139099],[30.0879881,41.1381728],[30.0867516,41.1397787],[30.0856304,41.1385384],[30.082588,41.139893],[30.080282,41.138294],[30.076845,41.139234],[30.0769835,41.1351571],[30.074027,41.1339],[30.055152,41.138424],[30.053467,41.138124],[30.053548,41.13633],[30.048404,41.137481],[30.048664,41.135435],[30.0464755,41.1338901],[30.0432452,41.1373215],[30.040971,41.136648],[30.0379151,41.1385452],[30.025888,41.139853],[30.0222791,41.1381826],[30.023524,41.135814],[30.0207063,41.1345935],[30.0170894,41.1355283],[30.0169114,41.1387099],[30.012422,41.137323],[30.008621,41.138764],[30.0052034,41.136191],[29.9993196,41.138895],[30.0029981,41.1366827],[30.0016396,41.1352343],[30.0003076,41.1375663],[29.9973524,41.1368554],[29.9960116,41.1388086],[29.9949883,41.1374068],[29.993524,41.1382107],[29.9939562,41.1362043],[29.9904277,41.1343972],[29.9840146,41.1365897],[29.9809364,41.1347799],[29.9775388,41.1349798],[29.970501,41.14046],[29.964747,41.140865],[29.964322,41.138951],[29.961632,41.139534],[29.960183,41.137517],[29.957527,41.138869],[29.952733,41.137965],[29.952463,41.139512],[29.948744,41.139865],[29.946957,41.137857],[29.944289,41.138952],[29.943226,41.137952],[29.943283,41.139234],[29.938949,41.141013],[29.934161,41.140237],[29.924066,41.142291],[29.924021,41.141265],[29.9181844,41.1415455],[29.9140978,41.1403423],[29.9145913,41.1259019],[29.9095273,41.1210487],[29.9096302,41.1194186],[29.9144608,41.1200708],[29.9114513,41.1183865],[29.9157017,41.1099912],[29.9130249,41.1077197],[29.9141782,41.1049266],[29.9166942,41.10487],[29.914999,41.1040373],[29.9150097,41.1010461],[29.9183638,41.0992309],[29.9265754,41.0985802],[29.9285222,41.0969988],[29.9358378,41.0984051],[29.9435943,41.0974652],[29.9489605,41.0998582],[29.9549532,41.0987095],[29.9588048,41.0944648],[29.9561217,41.0894418],[29.9576783,41.0840012],[29.9550497,41.0837101],[29.9545133,41.0800952],[29.9454582,41.0826831],[29.9439347,41.0850202],[29.94109,41.0840125],[29.9361086,41.0868776],[29.9289909,41.0877125],[29.9278371,41.0864483],[29.9146664,41.0898801],[29.9151599,41.0887723],[29.9115443,41.0896375],[29.9107692,41.0879805],[29.9038088,41.0917641],[29.9003367,41.0908989],[29.8915028,41.0929597],[29.8925543,41.0856752],[29.8909982,41.0827078],[29.8869006,41.0804381],[29.8927045,41.0707537],[29.8928225,41.0639267],[29.8914465,41.0625703],[29.8871367,41.0631993],[29.8869974,41.0581555],[29.8810408,41.054389],[29.8804294,41.0419671],[29.877963,41.0405202],[29.8684617,41.0402864],[29.8678136,41.0375584],[29.8637715,41.0355016],[29.8622285,41.0308556],[29.8545742,41.0283808],[29.8464203,41.0208047],[29.8409454,41.0208051],[29.8394794,41.0184287],[29.8350048,41.0173887],[29.8320436,41.0146768],[29.8227533,41.0132347],[29.8192679,41.0149915],[29.8138047,41.0146239],[29.8086226,41.0201895],[29.8042774,41.01955],[29.8002756,41.0207076],[29.7914994,41.0192424],[29.785734,41.0215493],[29.7849979,41.023886],[29.7783629,41.0273877],[29.7712369,41.0252479],[29.7649673,41.0254778],[29.7645592,41.0268349],[29.7611368,41.0271748],[29.7563504,41.026561],[29.7536909,41.0277333],[29.7506118,41.0319905],[29.746397,41.0343493],[29.7426057,41.0341602],[29.7406554,41.035956],[29.7364282,41.0348392],[29.7365355,41.0404878],[29.7324291,41.0421757],[29.7298193,41.0411028],[29.7230435,41.0315198],[29.7180304,41.0317493],[29.7181463,41.0275067],[29.7044201,41.0344787],[29.7058285,41.0286119],[29.6998891,41.0283644],[29.6961522,41.0244148],[29.6964097,41.0226179],[29.7070741,41.0126125],[29.7100138,41.0116086],[29.7134762,41.0127571],[29.7189464,41.0084263],[29.7183906,41.0036362],[29.7116905,41.002111],[29.7116573,41.0004562],[29.7031255,40.9946586],[29.7008315,40.990049],[29.6920094,40.9887823],[29.6910154,40.9845285],[29.6883792,40.9839073],[29.6907127,40.9823684],[29.6896344,40.9796308],[29.6860134,40.9795984],[29.6838077,40.9770912],[29.6834981,40.9699632],[29.6791363,40.966022],[29.6766905,40.9644098],[29.6731979,40.9644948],[29.6716958,40.966427],[29.6633166,40.9617484],[29.6623349,40.9633566],[29.6601248,40.9626679],[29.6556294,40.9640614],[29.6553022,40.9672655],[29.6517777,40.9694042],[29.6494978,40.9685617],[29.6465635,40.9701616],[29.6323532,40.9713403],[29.6210235,40.9762167],[29.6136477,40.9812279],[29.6109223,40.9799791],[29.6059227,40.9827005],[29.605,40.9839478],[29.6068668,40.9907831],[29.6103859,40.9924675],[29.6112442,41.0003707],[29.6090915,41.0074019],[29.605375,41.0054929],[29.6034227,41.0070053],[29.5989275,41.0033666],[29.6018565,41.0124748],[29.5971894,41.0205133],[29.6002632,41.026565],[29.5978181,41.0284731],[29.5779985,41.0325632],[29.5743732,41.0350792],[29.5735003,41.0327495],[29.5665838,41.034576],[29.5580567,41.0392344],[29.5567856,41.0382356],[29.5534896,41.0388933],[29.5507902,41.0353979],[29.5467789,41.0370303],[29.5444479,41.0354441],[29.5424802,41.0370316],[29.5386128,41.0368198],[29.5367735,41.0354627],[29.5373054,41.0331447],[29.5319957,41.0341101],[29.530487,41.0319213],[29.5281986,41.0316644],[29.5257421,41.0342647],[29.5272179,41.0362283],[29.5224649,41.042129],[29.5208967,41.0415777],[29.5175406,41.0440465],[29.5127049,41.0422962],[29.5115335,41.0400558],[29.5086371,41.041655],[29.5079255,41.0362312],[29.5017893,41.0315471],[29.499759,41.0262007],[29.4997079,41.017212],[29.4935886,41.0126664],[29.4929349,41.0083022],[29.5025604,41.0004288],[29.505188,41.0001656],[29.5065976,40.995624],[29.5052565,40.9941115],[29.5064693,40.9880709],[29.5009289,40.9866774],[29.4997207,40.9845776],[29.4956542,40.981508],[29.4850433,40.9749603],[29.4819374,40.9699663],[29.485014,40.9682769],[29.4851959,40.9660795],[29.4825282,40.9620049],[29.479224,40.9618447],[29.479224,40.9577011],[29.4763138,40.9594639],[29.474752,40.9587832],[29.4699567,40.9516608],[29.4632713,40.950964],[29.45658,40.9543506],[29.4519701,40.9475126],[29.4402575,40.9437888],[29.4407017,40.9404665],[29.4374215,40.9379749],[29.440116,40.9357043],[29.4389177,40.9338969],[29.4424885,40.932952],[29.4423206,40.9201202],[29.4442851,40.9163423],[29.4503498,40.915261],[29.4525576,40.9170476],[29.4561889,40.9146308],[29.4533547,40.9092489],[29.4394285,40.8996827],[29.4165885,40.8981614],[29.4137137,40.8790203],[29.4035705,40.8797887],[29.3907608,40.874849],[29.3852973,40.8733723],[29.3800976,40.8720852],[29.3742157,40.8684753],[29.3711687,40.8639966],[29.3672849,40.8628769],[29.3663622,40.8594365],[29.3644095,40.8591931],[29.3661708,40.8559379],[29.3680846,40.855846],[29.3616286,40.8491345],[29.3631302,40.8490502],[29.3682668,40.8399838],[29.3712344,40.8379047],[29.3641309,40.8271596],[29.3630403,40.817093],[29.3545349,40.8222765],[29.348538,40.8240644],[29.3400297,40.8106872],[29.3470249,40.8016323],[29.3436561,40.8015308],[29.3476268,40.8009976],[29.3463329,40.8006578],[29.3480774,40.7994789],[29.3447611,40.7969258],[29.3489035,40.7961245],[29.34975,40.7939977],[29.3475085,40.7905976],[29.3448134,40.7899492],[29.3422613,40.7920619],[29.3370222,40.7928723],[29.3373006,40.7899374],[29.3333872,40.7902631],[29.3361939,40.7879594],[29.3336675,40.7863053],[29.3404855,40.7848691],[29.3437088,40.787476],[29.348742,40.7843164],[29.352649,40.777004],[29.353772,40.770563],[29.3492751,40.7674736],[29.3516055,40.7659881],[29.3545328,40.7553835],[29.3628315,40.7582078],[29.3648915,40.7564338],[29.3642162,40.7576769],[29.3675326,40.7563885],[29.3724566,40.7573136],[29.3859369,40.7547944],[29.3875918,40.7520131],[29.3864807,40.7543259],[29.387801,40.7526623],[29.3920969,40.7535704],[29.3923119,40.7550309],[29.3962134,40.7551789],[29.4081135,40.7622835],[29.4161812,40.7655387],[29.4218414,40.7654646],[29.4279025,40.7683093],[29.4262472,40.7683321],[29.4269751,40.7690744],[29.4394375,40.7715452],[29.4448395,40.7688826],[29.4498723,40.7683034],[29.4561515,40.770639],[29.4596783,40.770283],[29.4629117,40.7724542],[29.4685772,40.7715813],[29.4725757,40.7753617],[29.4837454,40.7776399],[29.4904631,40.7806186],[29.4966463,40.7789846],[29.5033791,40.7795396],[29.5158875,40.7668824],[29.518912,40.766689],[29.5230574,40.7689078],[29.5228142,40.7641194],[29.5234214,40.7662543],[29.5265957,40.766458],[29.5267171,40.7642574],[29.5275237,40.7666222],[29.5282609,40.7636136],[29.534228,40.7636925],[29.5345142,40.7669835],[29.5393277,40.7654529],[29.5362314,40.7681198],[29.5387704,40.7680476],[29.5388991,40.769462],[29.5422286,40.7694971],[29.5406714,40.7676552],[29.5423828,40.7695208],[29.5434285,40.7686017],[29.5434549,40.7702181],[29.5443254,40.7666916],[29.5439204,40.7690689],[29.5457334,40.7674705],[29.5446691,40.7694413],[29.547377,40.7684975],[29.5456849,40.7699635],[29.551871,40.772126],[29.5716552,40.7665535],[29.6108766,40.7822753],[29.617657,40.782635],[29.6173967,40.7836904],[29.6192327,40.7832425],[29.617779,40.7823541],[29.6252311,40.7815824],[29.6306368,40.7771697],[29.636425,40.775614],[29.652384,40.777816],[29.668281,40.778476],[29.680048,40.777176],[29.6848537,40.7784644],[29.7025875,40.7751175],[29.7060498,40.7763733],[29.7067434,40.7742779],[29.7117639,40.7751465],[29.7094558,40.7720445],[29.7142087,40.7746873],[29.7186918,40.7713918],[29.7175039,40.7711672],[29.7243088,40.770716],[29.7246837,40.7686716],[29.7246227,40.7705177],[29.7328906,40.7719431],[29.7445902,40.7672055],[29.7486577,40.7639476],[29.7420087,40.7619582],[29.7449271,40.7587813],[29.7512695,40.7612297],[29.7551786,40.7558853],[29.756999,40.7566078],[29.7595381,40.7505025],[29.7555168,40.7500179],[29.7598507,40.7499858],[29.7638169,40.7454102],[29.7648835,40.7461114],[29.7692948,40.7428935],[29.7831788,40.7406974],[29.7884279,40.7454619],[29.7967501,40.7434469],[29.8030783,40.7486321],[29.8222464,40.7501229],[29.8253883,40.7494289],[29.8254979,40.7477427],[29.8274532,40.747493],[29.8263713,40.7467798],[29.8315526,40.7472142],[29.8371317,40.7520691],[29.843066,40.752622],[29.8471488,40.7503937],[29.8556438,40.7495987],[29.853803,40.7502861],[29.855595,40.7507303],[29.8549777,40.7521728],[29.8644407,40.7549906],[29.86596,40.757945],[29.8766754,40.7577955],[29.8805874,40.7598764],[29.8994913,40.7581786],[29.9086998,40.7589682],[29.9139249,40.7609695],[29.9200316,40.7603386],[29.9196932,40.7588912],[29.9215756,40.758647],[29.9198268,40.758969],[29.9211264,40.7593076],[29.9201713,40.7603885],[29.9263895,40.7597523],[29.9373682,40.7556177],[29.9421009,40.7477955],[29.9396171,40.7454233],[29.9412453,40.7396194],[29.9385755,40.7357018],[29.9416702,40.7353639],[29.9382608,40.7348908],[29.9408304,40.7341701],[29.9411275,40.7298329],[29.936704,40.7197391],[29.9352136,40.7184364],[29.9302161,40.7182311],[29.9284889,40.7207912],[29.929183,40.7177906],[29.9229352,40.716679],[29.9209531,40.7178686],[29.9163941,40.714269],[29.9132558,40.7155345],[29.9048255,40.7140474],[29.8979563,40.7175437],[29.89409,40.7173488],[29.8876488,40.7143731],[29.8855203,40.7152386],[29.8870082,40.7171104],[29.8849926,40.7155979],[29.8856066,40.7175193],[29.8828577,40.7156998],[29.881523,40.7176564],[29.8776127,40.7175723],[29.8770299,40.7156945],[29.8747197,40.7168389],[29.8720517,40.7158447],[29.87166,40.7186156],[29.8759135,40.7192663],[29.875518,40.7202673],[29.87721,40.7207841],[29.8778481,40.7237157],[29.8769301,40.7208624],[29.8708688,40.7192138],[29.8716559,40.7203239],[29.8696072,40.7201555],[29.8737619,40.7218796],[29.873179,40.7242109],[29.8679849,40.728397],[29.8588122,40.7272285],[29.8471207,40.729384],[29.8474128,40.7276059],[29.8470111,40.7287885],[29.8409321,40.7246902],[29.838481,40.7259386],[29.8321724,40.7218618],[29.8229903,40.723722],[29.8196961,40.7264978],[29.8137336,40.72601],[29.8137899,40.7239529],[29.8079954,40.7249935],[29.8071864,40.7260873],[29.8101589,40.7269748],[29.8128113,40.7303646],[29.7956126,40.7267201],[29.7911429,40.7219798],[29.7812723,40.7222294],[29.7734816,40.7186301],[29.7580847,40.7169456],[29.7510925,40.7177862],[29.7433985,40.7142596],[29.7265896,40.7116983],[29.7274907,40.7124208],[29.7217115,40.7103716],[29.7144681,40.7116917],[29.7058903,40.7078627],[29.6889081,40.7066673],[29.6789022,40.7029364],[29.672345,40.70291],[29.6656632,40.705153],[29.660162,40.701908],[29.6556361,40.7019784],[29.6441752,40.6957911],[29.618613,40.6964563],[29.611428,40.6931404],[29.6100314,40.6940182],[29.5958168,40.6922678],[29.5853611,40.688445],[29.5750938,40.6893485],[29.5644313,40.6864606],[29.5583037,40.6866012],[29.5505303,40.6785856],[29.5506057,40.6756246],[29.5477338,40.6756412],[29.5470322,40.67333],[29.539096,40.6688737],[29.530321,40.666167],[29.5357504,40.6633405],[29.5390062,40.6562593],[29.5321602,40.6559965],[29.52578,40.6536553],[29.5247269,40.6546123],[29.5234288,40.6523639],[29.511636,40.650227],[29.5068968,40.6471516],[29.4988879,40.6457022],[29.5001802,40.6414746],[29.4977123,40.6400291],[29.4978768,40.6371642],[29.4997386,40.6351074],[29.4972447,40.6323803],[29.4995394,40.6311317],[29.4997732,40.6269828],[29.4980933,40.6225005],[29.5023363,40.6172687],[29.5022497,40.6096961],[29.5018168,40.6065144],[29.4980414,40.6042266],[29.4952011,40.595114],[29.4924475,40.5931809],[29.4944911,40.5899194],[29.5003967,40.5894723],[29.4999118,40.5852768],[29.501505,40.5841063],[29.4965347,40.5806471],[29.4980933,40.5800683],[29.4989246,40.5757802],[29.4943179,40.5722154],[29.4942486,40.5692028],[29.4868364,40.5694396],[29.4818047,40.5639722],[29.4826923,40.5624346],[29.4810916,40.5612051],[29.4843106,40.5571959],[29.4917338,40.5560198],[29.4934577,40.5463698],[29.4971693,40.5423998],[29.4933331,40.5377286],[29.4983334,40.5247959],[29.5002986,40.5283885],[29.5052988,40.5308466],[29.5145529,40.5299579],[29.5198972,40.5252977],[29.5234402,40.5250865],[29.5249717,40.52832],[29.5269455,40.5283717],[29.5314378,40.532588],[29.5410688,40.5323034],[29.5432128,40.5340623],[29.5520611,40.5303376],[29.5504616,40.5287597],[29.5521973,40.5263023],[29.5581529,40.5305446],[29.5563492,40.5376316],[29.560433,40.541511],[29.5641765,40.5391834],[29.5641085,40.5361056],[29.5653676,40.5368298],[29.5673415,40.5349934],[29.5709489,40.536985],[29.5709489,40.5399592],[29.574216,40.5390282],[29.579559,40.5412524],[29.5804438,40.5444075],[29.5867738,40.5395713],[29.5900408,40.5436316],[29.594465,40.5451574],[29.5960985,40.5450799],[29.5967111,40.5418731],[29.5999101,40.5433213],[29.5985829,40.5412006],[29.6028369,40.5408644],[29.605117,40.5438127],[29.6069207,40.5419506],[29.610426,40.541692],[29.6137952,40.5427524],[29.6138973,40.5451574],[29.6161774,40.5431403],[29.6175047,40.5445885],[29.6155308,40.5445626],[29.6175047,40.5460884],[29.6207377,40.5444851],[29.6255022,40.5457264],[29.6349971,40.5565869],[29.6392171,40.5545959],[29.6433009,40.5578021],[29.6421438,40.5595603],[29.6437093,40.5655843],[29.654021,40.5714009],[29.6556545,40.5702376],[29.6570158,40.5714138],[29.6597724,40.57069],[29.6650474,40.5777469],[29.6766352,40.5836271],[29.6787452,40.5867802],[29.6844116,40.5901529],[29.6864194,40.5958511],[29.6844286,40.6014067],[29.6858409,40.6027503],[29.6826419,40.603913],[29.6852113,40.6070006],[29.6874404,40.6045977],[29.6970715,40.6066518],[29.6993856,40.6113023],[29.7046693,40.6144126],[29.7052364,40.6118137],[29.733281,40.6106707],[29.7350588,40.6084534],[29.7481386,40.6044283],[29.7565833,40.6018975],[29.7737901,40.5987398],[29.7764886,40.59604],[29.7929018,40.5913874],[29.8022989,40.5864933],[29.812077,40.5843234],[29.8194106,40.5833349],[29.8583959,40.584227],[29.8699835,40.581623],[29.8836423,40.5731547],[29.8944186,40.5724105],[29.8957741,40.5741272],[29.9026167,40.5707129],[29.9020893,40.568033],[29.9059477,40.5655353],[29.9080649,40.5604515],[29.9050031,40.5584435],[29.9052722,40.5568716],[29.9100426,40.5525886],[29.9096297,40.5505759],[29.9056284,40.5538142],[29.9044623,40.5508665],[29.9033199,40.5445484],[29.9052577,40.5301248],[29.9669815,40.551366]]],[[[30.2638351,41.2169981],[30.2576339,41.2172489],[30.2554545,41.2115623],[30.2577524,41.2156369],[30.2595123,41.2142651],[30.2610807,41.2151774],[30.260798,41.211823],[30.2614728,41.2154312],[30.2638351,41.2169981]]]]}}]}